{
  "links" : {
    "next" : "https://api.nasa.gov/neo/rest/v1/feed?start_date=2014-09-23&end_date=2014-09-23&detailed=true&api_key=t0TVs3DtDT2H8Oy2Zy8m2eVrNsAVKAexjcZXUckd",
    "prev" : "https://api.nasa.gov/neo/rest/v1/feed?start_date=2014-09-21&end_date=2014-09-21&detailed=true&api_key=t0TVs3DtDT2H8Oy2Zy8m2eVrNsAVKAexjcZXUckd",
    "self" : "https://api.nasa.gov/neo/rest/v1/feed?start_date=2014-09-22&end_date=2014-09-22&detailed=true&api_key=t0TVs3DtDT2H8Oy2Zy8m2eVrNsAVKAexjcZXUckd"
  },
  "element_count" : 13,
  "near_earth_objects" : {
    "2014-09-22" : [ {
      "links" : {
        "self" : "https://api.nasa.gov/neo/rest/v1/neo/3689342?api_key=t0TVs3DtDT2H8Oy2Zy8m2eVrNsAVKAexjcZXUckd"
      },
      "neo_reference_id" : "3689342",
      "name" : "(2014 RO60)",
      "nasa_jpl_url" : "http://ssd.jpl.nasa.gov/sbdb.cgi?sstr=3689342",
      "absolute_magnitude_h" : 25.5,
      "estimated_diameter" : {
        "kilometers" : {
          "estimated_diameter_min" : 0.0211132445,
          "estimated_diameter_max" : 0.0472106499
        },
        "meters" : {
          "estimated_diameter_min" : 21.113244479,
          "estimated_diameter_max" : 47.2106498806
        },
        "miles" : {
          "estimated_diameter_min" : 0.0131191578,
          "estimated_diameter_max" : 0.0293353287
        },
        "feet" : {
          "estimated_diameter_min" : 69.2691770164,
          "estimated_diameter_max" : 154.8905885541
        }
      },
      "is_potentially_hazardous_asteroid" : false,
      "close_approach_data" : [ {
        "close_approach_date" : "2014-09-22",
        "epoch_date_close_approach" : 1411369200000,
        "relative_velocity" : {
          "kilometers_per_second" : "7.1912821661",
          "kilometers_per_hour" : "25888.6157978722",
          "miles_per_hour" : "16086.1790772945"
        },
        "miss_distance" : {
          "astronomical" : "0.0624571829",
          "lunar" : "24.2958431244",
          "kilometers" : "9343461",
          "miles" : "5805758"
        },
        "orbiting_body" : "Earth"
      } ],
      "orbital_data" : {
        "orbit_id" : "6",
        "orbit_determination_date" : "2017-04-06 08:38:41",
        "orbit_uncertainty" : "8",
        "minimum_orbit_intersection" : ".0622458",
        "jupiter_tisserand_invariant" : "4.081",
        "epoch_osculation" : "2456920.5",
        "eccentricity" : ".3875457187466379",
        "semi_major_axis" : "1.711881783005243",
        "inclination" : "9.965269177349706",
        "ascending_node_longitude" : "351.6039827627271",
        "orbital_period" : "818.1050669586393",
        "perihelion_distance" : "1.0484493270012",
        "perihelion_argument" : "24.58745468458897",
        "aphelion_distance" : "2.375314239009286",
        "perihelion_time" : "2456938.965905290468",
        "mean_anomaly" : "351.8742394185604",
        "mean_motion" : ".4400412789745017",
        "equinox" : "J2000"
      }
    }, {
      "links" : {
        "self" : "https://api.nasa.gov/neo/rest/v1/neo/3689179?api_key=t0TVs3DtDT2H8Oy2Zy8m2eVrNsAVKAexjcZXUckd"
      },
      "neo_reference_id" : "3689179",
      "name" : "(2014 SC)",
      "nasa_jpl_url" : "http://ssd.jpl.nasa.gov/sbdb.cgi?sstr=3689179",
      "absolute_magnitude_h" : 26.4,
      "estimated_diameter" : {
        "kilometers" : {
          "estimated_diameter_min" : 0.0139493823,
          "estimated_diameter_max" : 0.0311917671
        },
        "meters" : {
          "estimated_diameter_min" : 13.9493822934,
          "estimated_diameter_max" : 31.1917670523
        },
        "miles" : {
          "estimated_diameter_min" : 0.0086677416,
          "estimated_diameter_max" : 0.0193816595
        },
        "feet" : {
          "estimated_diameter_min" : 45.7656914036,
          "estimated_diameter_max" : 102.3351970157
        }
      },
      "is_potentially_hazardous_asteroid" : false,
      "close_approach_data" : [ {
        "close_approach_date" : "2014-09-22",
        "epoch_date_close_approach" : 1411369200000,
        "relative_velocity" : {
          "kilometers_per_second" : "7.5274780808",
          "kilometers_per_hour" : "27098.9210909151",
          "miles_per_hour" : "16838.2157189633"
        },
        "miss_distance" : {
          "astronomical" : "0.0304710594",
          "lunar" : "11.8532419205",
          "kilometers" : "4558405.5",
          "miles" : "2832461.75"
        },
        "orbiting_body" : "Earth"
      } ],
      "orbital_data" : {
        "orbit_id" : "10",
        "orbit_determination_date" : "2017-04-06 08:38:41",
        "orbit_uncertainty" : "8",
        "minimum_orbit_intersection" : ".0271029",
        "jupiter_tisserand_invariant" : "3.260",
        "epoch_osculation" : "2456919.5",
        "eccentricity" : ".5764200681482189",
        "semi_major_axis" : "2.425437502827992",
        "inclination" : "3.071282688840485",
        "ascending_node_longitude" : "178.4802067682782",
        "orbital_period" : "1379.696490472523",
        "perihelion_distance" : "1.027366652158635",
        "perihelion_argument" : "191.0229734167387",
        "aphelion_distance" : "3.823508353497349",
        "perihelion_time" : "2456931.269066253712",
        "mean_anomaly" : "356.929133414056",
        "mean_motion" : ".2609269520405217",
        "equinox" : "J2000"
      }
    }, {
      "links" : {
        "self" : "https://api.nasa.gov/neo/rest/v1/neo/3690384?api_key=t0TVs3DtDT2H8Oy2Zy8m2eVrNsAVKAexjcZXUckd"
      },
      "neo_reference_id" : "3690384",
      "name" : "(2014 SE145)",
      "nasa_jpl_url" : "http://ssd.jpl.nasa.gov/sbdb.cgi?sstr=3690384",
      "absolute_magnitude_h" : 27.2,
      "estimated_diameter" : {
        "kilometers" : {
          "estimated_diameter_min" : 0.0096506147,
          "estimated_diameter_max" : 0.0215794305
        },
        "meters" : {
          "estimated_diameter_min" : 9.6506146958,
          "estimated_diameter_max" : 21.5794304844
        },
        "miles" : {
          "estimated_diameter_min" : 0.0059966121,
          "estimated_diameter_max" : 0.0134088323
        },
        "feet" : {
          "estimated_diameter_min" : 31.6621227185,
          "estimated_diameter_max" : 70.7986587106
        }
      },
      "is_potentially_hazardous_asteroid" : false,
      "close_approach_data" : [ {
        "close_approach_date" : "2014-09-22",
        "epoch_date_close_approach" : 1411369200000,
        "relative_velocity" : {
          "kilometers_per_second" : "8.8098391766",
          "kilometers_per_hour" : "31715.421035739",
          "miles_per_hour" : "19706.7292541235"
        },
        "miss_distance" : {
          "astronomical" : "0.009887362",
          "lunar" : "3.8461837769",
          "kilometers" : "1479128.25",
          "miles" : "919087.6875"
        },
        "orbiting_body" : "Earth"
      } ],
      "orbital_data" : {
        "orbit_id" : "5",
        "orbit_determination_date" : "2017-04-06 08:38:30",
        "orbit_uncertainty" : "7",
        "minimum_orbit_intersection" : ".0102418",
        "jupiter_tisserand_invariant" : "3.416",
        "epoch_osculation" : "2458000.5",
        "eccentricity" : ".5469393237333989",
        "semi_major_axis" : "2.232560281384419",
        "inclination" : "8.405900777013905",
        "ascending_node_longitude" : "180.4034394677978",
        "orbital_period" : "1218.437391046821",
        "perihelion_distance" : "1.011485270889978",
        "perihelion_argument" : "172.9582952102549",
        "aphelion_distance" : "3.45363529187886",
        "perihelion_time" : "2458139.591077882134",
        "mean_anomaly" : "318.9040943707839",
        "mean_motion" : ".2954604008751782",
        "equinox" : "J2000"
      }
    } ]
  }
}